{
    "links": {
        "self": "http://www.neowsapp.com/rest/v1/neo/54051304?api_key=iIulBulltgU6a56xZRHN4H3l9WmuAYTsLGpBGhQ2"
    },
    "id": "54051304",
    "neo_reference_id": "54051304",
    "name": "(2020 QO3)",
    "designation": "2020 QO3",
    "nasa_jpl_url": "http://ssd.jpl.nasa.gov/sbdb.cgi?sstr=54051304",
    "absolute_magnitude_h": 24.105,
    "estimated_diameter": {
        "kilometers": {
            "estimated_diameter_min": 0.0401379305,
            "estimated_diameter_max": 0.0897511411
        },
        "meters": {
            "estimated_diameter_min": 40.1379304977,
            "estimated_diameter_max": 89.751141069
        },
        "miles": {
            "estimated_diameter_min": 0.024940546,
            "estimated_diameter_max": 0.0557687563
        },
        "feet": {
            "estimated_diameter_min": 131.686127894,
            "estimated_diameter_max": 294.4591336648
        }
    },
    "is_potentially_hazardous_asteroid": false,
    "close_approach_data": [
        {
            "close_approach_date": "2020-09-08",
            "close_approach_date_full": "2020-Sep-08 21:34",
            "epoch_date_close_approach": 1599600840000,
            "relative_velocity": {
                "kilometers_per_second": "8.9566563307",
                "kilometers_per_hour": "32243.9627905034",
                "miles_per_hour": "20035.1445461325"
            },
            "miss_distance": {
                "astronomical": "0.1906758197",
                "lunar": "74.1728938633",
                "kilometers": "28524696.487624039",
                "miles": "17724424.5049241782"
            },
            "orbiting_body": "Earth"
        },
        {
            "close_approach_date": "2025-09-24",
            "close_approach_date_full": "2025-Sep-24 13:30",
            "epoch_date_close_approach": 1758720600000,
            "relative_velocity": {
                "kilometers_per_second": "13.3560245338",
                "kilometers_per_hour": "48081.6883217711",
                "miles_per_hour": "29876.0912797138"
            },
            "miss_distance": {
                "astronomical": "0.4556396361",
                "lunar": "177.2438184429",
                "kilometers": "68162719.048135107",
                "miles": "42354349.6192221966"
            },
            "orbiting_body": "Earth"
        }
    ],
    "orbital_data": {
        "orbit_id": "4",
        "orbit_determination_date": "2020-08-27 06:50:10",
        "first_observation_date": "2020-08-18",
        "last_observation_date": "2020-08-26",
        "data_arc_in_days": 8,
        "observations_used": 25,
        "orbit_uncertainty": "8",
        "minimum_orbit_intersection": ".169861",
        "jupiter_tisserand_invariant": "4.716",
        "epoch_osculation": "2459080.5",
        "eccentricity": ".1774850007130312",
        "semi_major_axis": "1.389096572256997",
        "inclination": "17.52591460833724",
        "ascending_node_longitude": "162.6061576107008",
        "orbital_period": "597.9943577874276",
        "perihelion_distance": "1.142552766139495",
        "perihelion_argument": "220.4240123559921",
        "aphelion_distance": "1.6356403783745",
        "perihelion_time": "2459148.527922029800",
        "mean_anomaly": "319.0463494984452",
        "mean_motion": ".6020123690330389",
        "equinox": "J2000",
        "orbit_class": {
            "orbit_class_type": "AMO",
            "orbit_class_description": "Near-Earth asteroid orbits similar to that of 1221 Amor",
            "orbit_class_range": "1.017 AU < q (perihelion) < 1.3 AU"
        }
    },
    "is_sentry_object": false
}